{
"type": "FeatureCollection",
"name": "baselines",
"crs": { "type": "name", "properties": { "name": "urn:ogc:def:crs:EPSG::32645" } },
"features": [
{ "type": "Feature", "properties": { "bank": "W", "source_passes": "20150119_S1A,20150308_S1A,20150401_S1A,20150425_S1A,20150519_S1A,20150612_S1A,20150706_S1A,20150823_S1A,20151010_S1A,20151127_S1A" }, "geometry": { "type": "LineString", "coordinates": [ [ 761328.024487572954968, 2750635.0 ], [ 761343.779594151419587, 2750535.0 ], [ 761359.956849753507413, 2750435.0 ], [ 761376.52368312748149, 2750335.0 ], [ 761393.443342297105119, 2750235.0 ], [ 761410.674419312388636, 2750135.0 ], [ 761428.176601946353912, 2750035.0 ], [ 761445.905604401254095, 2749935.0 ], [ 761463.817645385512151, 2749835.0 ], [ 761481.868943943060003, 2749735.0 ], [ 761500.015871392330155, 2749635.0 ], [ 761518.216179212322459, 2749535.0 ], [ 761536.428975607734174, 2749435.0 ], [ 761554.616191634442657, 2749335.0 ], [ 761572.743083861540072, 2749235.0 ], [ 761590.778526911162771, 2749135.0 ], [ 761608.696164758759551, 2749035.0 ], [ 761626.474686598987319, 2748935.0 ], [ 761644.098750872071832, 2748835.0 ], [ 761661.558990195626393, 2748735.0 ], [ 761678.853003684314899, 2748635.0 ], [ 761695.985452902736142, 2748535.0 ], [ 761712.968304317211732, 2748435.0 ], [ 761729.821184179512784, 2748335.0 ], [ 761746.571700151427649, 2748235.0 ], [ 761763.254711271962151, 2748135.0 ], [ 761779.912578729446977, 2748035.0 ], [ 761796.594934798893519, 2747935.0 ], [ 761813.358326383982785, 2747835.0 ], [ 761830.265634768176824, 2747735.0 ], [ 761847.385501586599275, 2747635.0 ], [ 761864.791640601819381, 2747535.0 ], [ 761882.562241083476692, 2747435.0 ], [ 761900.779212176450528, 2747335.0 ], [ 761919.527007332886569, 2747235.0 ], [ 761938.892008861410432, 2747135.0 ], [ 761958.961202449514531, 2747035.0 ], [ 761979.821744952583686, 2746935.0 ], [ 762001.559379472862929, 2746835.0 ], [ 762024.2575991518097, 2746735.0 ], [ 762047.996817216975614, 2746635.0 ], [ 762072.85332126065623, 2746535.0 ], [ 762098.898010361357592, 2746435.0 ], [ 762126.195421530283056, 2746335.0 ], [ 762154.803663811064325, 2746235.0 ], [ 762184.772230197791941, 2746135.0 ], [ 762216.142073814989999, 2746035.0 ], [ 762248.944533364148811, 2745935.0 ], [ 762283.199964668601751, 2745835.0 ], [ 762318.918769722688012, 2745735.0 ], [ 762356.099408218869939, 2745635.0 ], [ 762394.730356421903707, 2745535.0 ], [ 762434.784956642310135, 2745435.0 ], [ 762476.224426315515302, 2745335.0 ], [ 762518.99904851289466, 2745235.0 ], [ 762563.044635051279329, 2745135.0 ], [ 762608.286336446646601, 2745035.0 ], [ 762654.637464577448554, 2744935.0 ], [ 762701.999876946676522, 2744835.0 ], [ 762750.264726854977198, 2744735.0 ], [ 762799.313534411834553, 2744635.0 ], [ 762849.01901758601889, 2744535.0 ], [ 762899.246307271532714, 2744435.0 ], [ 762949.854476675041951, 2744335.0 ], [ 763000.697767288307659, 2744235.0 ], [ 763051.627241685404442, 2744135.0 ], [ 763102.492154989857227, 2744035.0 ], [ 763153.142137300805189, 2743935.0 ], [ 763203.431403721449897, 2743835.0 ], [ 763253.212552472017705, 2743735.0 ], [ 763302.345758895971812, 2743635.0 ], [ 763350.697815277962945, 2743535.0 ], [ 763398.144299521460198, 2743435.0 ], [ 763444.57110022159759, 2743335.0 ], [ 763489.875516073545441, 2743235.0 ], [ 763533.968304914305918, 2743135.0 ], [ 763576.773727427236736, 2743035.0 ], [ 763618.230903962394223, 2742935.0 ], [ 763658.294071974232793, 2742835.0 ], [ 763696.933510917238891, 2742735.0 ], [ 763734.135688730981201, 2742635.0 ], [ 763769.903571120346896, 2742535.0 ], [ 763804.25548364338465, 2742435.0 ], [ 763837.224570535356179, 2742335.0 ], [ 763868.858891785610467, 2742235.0 ], [ 763899.220453869667836, 2742135.0 ], [ 763928.383675875724293, 2742035.0 ], [ 763956.434189483174123, 2741935.0 ], [ 763983.467089530429803, 2741835.0 ], [ 764009.585906352265738, 2741735.0 ], [ 764034.90012136020232, 2741635.0 ], [ 764059.524426942574792, 2741535.0 ], [ 764083.575930583872832, 2741435.0 ], [ 764107.173006851808168, 2741335.0 ], [ 764130.433298632386141, 2741235.0 ], [ 764153.471510716131888, 2741135.0 ], [ 764176.398637490579858, 2741035.0 ], [ 764199.319213172537275, 2740935.0 ], [ 764222.331336258444935, 2740835.0 ], [ 764245.524520647479221, 2740735.0 ], [ 764268.97865838452708, 2740635.0 ], [ 764292.763167578843422, 2740535.0 ], [ 764316.936372078140266, 2740435.0 ], [ 764341.54490910388995, 2740335.0 ], [ 764366.624014453729615, 2740235.0 ], [ 764392.197014147532173, 2740135.0 ], [ 764418.275605537812226, 2740035.0 ], [ 764444.860071659088135, 2739935.0 ], [ 764471.940358862630092, 2739835.0 ], [ 764499.49600322288461, 2739735.0 ], [ 764527.496609766967595, 2739635.0 ], [ 764555.905558444093913, 2739535.0 ], [ 764584.679523470695131, 2739435.0 ], [ 764613.766873954678886, 2739335.0 ], [ 764643.112023109104484, 2739235.0 ], [ 764672.65624455420766, 2739135.0 ], [ 764702.338213614420965, 2739035.0 ], [ 764732.09483863983769, 2738935.0 ], [ 764761.863855912350118, 2738835.0 ], [ 764791.584194949362427, 2738735.0 ], [ 764821.196499849669635, 2738635.0 ], [ 764850.642158936825581, 2738535.0 ], [ 764879.867394604953006, 2738435.0 ], [ 764908.821145049412735, 2738335.0 ], [ 764937.458779079723172, 2738235.0 ], [ 764965.744361462071538, 2738135.0 ], [ 764993.643631696817465, 2738035.0 ], [ 765021.131429402739741, 2737935.0 ], [ 765048.187386322650127, 2737835.0 ], [ 765074.797266012639739, 2737735.0 ], [ 765100.95348901161924, 2737635.0 ], [ 765126.654210339183919, 2737535.0 ], [ 765151.904945511254482, 2737435.0 ], [ 765176.717046990292147, 2737335.0 ], [ 765201.108367694891058, 2737235.0 ], [ 765225.102062459569424, 2737135.0 ], [ 765248.727212970843539, 2737035.0 ], [ 765272.016494783572853, 2736935.0 ], [ 765295.007529043476097, 2736835.0 ], [ 765317.743324400275014, 2736735.0 ], [ 765340.269943224266171, 2736635.0 ], [ 765362.636637807590887, 2736535.0 ], [ 765384.89640111674089, 2736435.0 ], [ 765407.105136244557798, 2736335.0 ], [ 765429.320700984448195, 2736235.0 ], [ 765451.602768573327921, 2736135.0 ], [ 765474.012652259436436, 2736035.0 ], [ 765496.613085516844876, 2735935.0 ], [ 765519.466955056297593, 2735835.0 ], [ 765542.637426918139681, 2735735.0 ], [ 765566.187393908621743, 2735635.0 ], [ 765590.179962820839137, 2735535.0 ], [ 765614.677112854667939, 2735435.0 ], [ 765639.739662599866278, 2735335.0 ], [ 765665.42755782068707, 2735235.0 ], [ 765691.799119085888378, 2735135.0 ], [ 765718.911017431062646, 2735035.0 ], [ 765746.818016618140973, 2734935.0 ], [ 765775.573062381474301, 2734835.0 ], [ 765805.227474379469641, 2734735.0 ], [ 765835.830328457290307, 2734635.0 ], [ 765867.428827792755328, 2734535.0 ], [ 765900.068759555811994, 2734435.0 ], [ 765933.793626729748212, 2734335.0 ], [ 765968.645006311475299, 2734235.0 ], [ 766004.663394099101424, 2734135.0 ], [ 766041.88715493271593, 2734035.0 ], [ 766080.353126551373862, 2733935.0 ], [ 766120.097546244971454, 2733835.0 ], [ 766161.153726068325341, 2733735.0 ], [ 766203.553631234099157, 2733635.0 ], [ 766247.326170590939, 2733535.0 ], [ 766292.500240164808929, 2733435.0 ], [ 766339.102545613888651, 2733335.0 ], [ 766387.154838101472706, 2733235.0 ], [ 766436.675842489115894, 2733135.0 ], [ 766487.679998327395879, 2733035.0 ], [ 766540.176624695537612, 2732935.0 ], [ 766594.16935381910298, 2732835.0 ], [ 766649.655491653014906, 2732735.0 ], [ 766706.624840496224351, 2732635.0 ], [ 766765.058727816445753, 2732535.0 ], [ 766824.929944774485193, 2732435.0 ], [ 766886.200574373709969, 2732335.0 ], [ 766948.822750908089802, 2732235.0 ], [ 767012.737231567851268, 2732135.0 ], [ 767077.873393634916283, 2732035.0 ], [ 767144.148736107745208, 2731935.0 ], [ 767211.466834367602132, 2731835.0 ], [ 767279.724055441562086, 2731735.0 ], [ 767348.80298623314593, 2731635.0 ], [ 767418.575348402839154, 2731535.0 ], [ 767488.902488566469401, 2731435.0 ], [ 767559.636005093809217, 2731335.0 ], [ 767630.619479594868608, 2731235.0 ], [ 767701.689544367953204, 2731135.0 ], [ 767772.677704633329995, 2731035.0 ], [ 767843.411423701560125, 2730935.0 ], [ 767913.716566927847452, 2730835.0 ], [ 767983.418364637298509, 2730735.0 ], [ 768052.343549525248818, 2730635.0 ], [ 768120.321657045162283, 2730535.0 ], [ 768187.187239210121334, 2730435.0 ], [ 768252.781170134083368, 2730335.0 ], [ 768316.951423239079304, 2730235.0 ], [ 768379.556281743571162, 2730135.0 ], [ 768440.463525273022242, 2730035.0 ], [ 768499.552633358049206, 2729935.0 ], [ 768556.71524019469507, 2729835.0 ], [ 768611.855643781484105, 2729735.0 ], [ 768664.891227129148319, 2729635.0 ], [ 768715.752304586814716, 2729535.0 ], [ 768764.382802685606293, 2729435.0 ], [ 768810.739928841590881, 2729335.0 ], [ 768854.793654424836859, 2729235.0 ], [ 768896.526679858914576, 2729135.0 ], [ 768935.933774114353582, 2729035.0 ], [ 768973.020937204943039, 2728935.0 ], [ 769007.804651770740747, 2728835.0 ], [ 769040.311428467859514, 2728735.0 ], [ 769070.576917642378248, 2728635.0 ], [ 769098.645680624525994, 2728535.0 ], [ 769124.570136219495907, 2728435.0 ], [ 769148.404365697875619, 2728335.0 ], [ 769170.216578555759043, 2728235.0 ], [ 769190.078501484356821, 2728135.0 ], [ 769208.065006924211048, 2728035.0 ], [ 769224.256513315718621, 2727935.0 ], [ 769238.736994093516842, 2727835.0 ], [ 769251.593081737169996, 2727735.0 ], [ 769262.912932802573778, 2727635.0 ], [ 769272.786765555851161, 2727535.0 ], [ 769281.307090259855613, 2727435.0 ], [ 769288.568169906386174, 2727335.0 ], [ 769294.664249052642845, 2727235.0 ], [ 769299.690055229119025, 2727135.0 ], [ 769303.739753263187595, 2727035.0 ], [ 769306.907317819655873, 2726935.0 ], [ 769309.285594168351963, 2726835.0 ], [ 769310.966280459659174, 2726735.0 ], [ 769312.038891904754564, 2726635.0 ], [ 769312.590739925974049, 2726535.0 ], [ 769312.706436363165267, 2726435.0 ], [ 769312.467751703341492, 2726335.0 ], [ 769311.952839980483986, 2726235.0 ], [ 769311.235510333906859, 2726135.0 ], [ 769310.385476265102625, 2726035.0 ], [ 769309.468054922646843, 2725935.0 ], [ 769308.543709159595892, 2725835.0 ], [ 769307.668108097510412, 2725735.0 ], [ 769306.892120124655776, 2725635.0 ], [ 769306.261407885001972, 2725535.0 ], [ 769305.815809598658234, 2725435.0 ], [ 769305.590274217771366, 2725335.0 ], [ 769305.614102429477498, 2725235.0 ], [ 769305.912730266456492, 2725135.0 ], [ 769306.506236816290766, 2725035.0 ], [ 769307.411804124247283, 2724935.0 ], [ 769308.641883920645341, 2724835.0 ], [ 769310.204886181978509, 2724735.0 ], [ 769312.106636690557934, 2724635.0 ], [ 769314.350510527612641, 2724535.0 ], [ 769316.937570495647378, 2724435.0 ], [ 769319.866918097948655, 2724335.0 ], [ 769323.136822503525764, 2724235.0 ], [ 769326.745056616375223, 2724135.0 ], [ 769330.689335003262386, 2724035.0 ], [ 769334.967908215010539, 2723935.0 ], [ 769339.57992677052971, 2723835.0 ], [ 769344.525359273189679, 2723735.0 ], [ 769349.806271097855642, 2723635.0 ], [ 769355.424253438366577, 2723535.0 ], [ 769361.383674187585711, 2723435.0 ], [ 769367.688872490311041, 2723335.0 ], [ 769374.346222536289133, 2723235.0 ], [ 769381.362933788215742, 2723135.0 ], [ 769388.746498999651521, 2723035.0 ], [ 769396.504677690798417, 2722935.0 ], [ 769404.646752880536951, 2722835.0 ], [ 769413.180359923397191, 2722735.0 ], [ 769422.112980742705986, 2722635.0 ], [ 769431.452169531956315, 2722535.0 ], [ 769441.204140079091303, 2722435.0 ], [ 769451.374507216503844, 2722335.0 ], [ 769461.967615305096842, 2722235.0 ], [ 769472.987563934060745, 2722135.0 ], [ 769484.440198434982449, 2722035.0 ], [ 769496.327258593402803, 2721935.0 ], [ 769508.651792071759701, 2721835.0 ], [ 769521.417522921925411, 2721735.0 ], [ 769534.628860341152176, 2721635.0 ], [ 769548.291909769875929, 2721535.0 ], [ 769562.415019197273068, 2721435.0 ], [ 769577.00965845270548, 2721335.0 ], [ 769592.090234928531572, 2721235.0 ], [ 769607.676948051084764, 2721135.0 ], [ 769623.796793112298474, 2721035.0 ], [ 769640.47982452227734, 2720935.0 ], [ 769657.760741783771664, 2720835.0 ], [ 769675.682066975627095, 2720735.0 ], [ 769694.29239016235806, 2720635.0 ], [ 769713.647322664503008, 2720535.0 ], [ 769733.808405192103237, 2720435.0 ], [ 769754.84364569792524, 2720335.0 ], [ 769776.82727113738656, 2720235.0 ], [ 769799.837010883493349, 2720135.0 ], [ 769823.955010093864985, 2720035.0 ], [ 769849.266241990379058, 2719935.0 ], [ 769875.856746605131775, 2719835.0 ], [ 769903.81269242381677, 2719735.0 ], [ 769933.219573328620754, 2719635.0 ], [ 769964.158996617770754, 2719535.0 ], [ 769996.708071546279825, 2719435.0 ], [ 770030.937475982587785, 2719335.0 ], [ 770066.910554510075599, 2719235.0 ], [ 770104.681001672521234, 2719135.0 ], [ 770144.291278182761744, 2719035.0 ], [ 770185.771874396246858, 2718935.0 ], [ 770229.138874510070309, 2718835.0 ], [ 770274.396006604307331, 2718735.0 ], [ 770321.531186460284516, 2718635.0 ], [ 770370.515763658215292, 2718535.0 ], [ 770421.30648056929931, 2718435.0 ], [ 770473.844452837016433, 2718335.0 ], [ 770528.055641035898589, 2718235.0 ], [ 770583.849762321682647, 2718135.0 ], [ 770641.123573258053511, 2718035.0 ], [ 770699.761065366445109, 2717935.0 ], [ 770759.634424919146113, 2717835.0 ], [ 770820.60602783318609, 2717735.0 ], [ 770882.530046504922211, 2717635.0 ], [ 770945.254140333971009, 2717535.0 ], [ 771008.62124831310939, 2717435.0 ], [ 771072.471569090965204, 2717335.0 ], [ 771136.644397150259465, 2717235.0 ], [ 771200.980507098603994, 2717135.0 ], [ 771265.323365288553759, 2717035.0 ], [ 771329.52178131241817, 2716935.0 ], [ 771393.430444444646128, 2716835.0 ], [ 771456.911466497112997, 2716735.0 ], [ 771519.836548981373198, 2716635.0 ], [ 771582.087455387343653, 2716535.0 ], [ 771643.556513581541367, 2716435.0 ], [ 771704.150285152602009, 2716335.0 ], [ 771763.776684854878113, 2716235.0 ], [ 771822.368833748972975, 2716135.0 ], [ 771879.87247828906402, 2716035.0 ], [ 771936.239932952215895, 2715935.0 ], [ 771991.441710312501527, 2715835.0 ], [ 772045.45519576780498, 2715735.0 ], [ 772098.269204757874832, 2715635.0 ], [ 772149.885264549171552, 2715535.0 ], [ 772200.314320981386118, 2715435.0 ], [ 772249.577192564960569, 2715335.0 ], [ 772297.703351031406783, 2715235.0 ], [ 772344.729449333972298, 2715135.0 ], [ 772390.699641451588832, 2715035.0 ], [ 772435.663268783129752, 2714935.0 ], [ 772479.675644906470552, 2714835.0 ], [ 772522.796592783066444, 2714735.0 ], [ 772565.089219490531832, 2714635.0 ], [ 772606.619511792552657, 2714535.0 ], [ 772647.45541276736185, 2714435.0 ], [ 772687.666562262107618, 2714335.0 ], [ 772727.323243020451628, 2714235.0 ], [ 772766.496488916338421, 2714135.0 ], [ 772805.257110370206647, 2714035.0 ], [ 772843.674121583811939, 2713935.0 ], [ 772881.815298005705699, 2713835.0 ], [ 772919.746679067146033, 2713735.0 ], [ 772957.532288010232151, 2713635.0 ], [ 772995.234997124760412, 2713535.0 ], [ 773032.917261681635864, 2713435.0 ], [ 773070.635532084619626, 2713335.0 ], [ 773108.446171082556248, 2713235.0 ], [ 773146.402833401923999, 2713135.0 ], [ 773184.555711802095175, 2713035.0 ], [ 773222.954719606321305, 2712935.0 ], [ 773261.646607974311337, 2712835.0 ], [ 773300.678927569184452, 2712735.0 ], [ 773340.096903135301545, 2712635.0 ], [ 773379.944428697112016, 2712535.0 ], [ 773420.263929610140622, 2712435.0 ], [ 773461.096749533666298, 2712335.0 ], [ 773502.483124000253156, 2712235.0 ], [ 773544.462163875345141, 2712135.0 ], [ 773587.071052759652957, 2712035.0 ], [ 773630.344523316249251, 2711935.0 ], [ 773674.315402115229517, 2711835.0 ], [ 773719.013562681037001, 2711735.0 ], [ 773764.464395417249762, 2711635.0 ], [ 773810.689782350091264, 2711535.0 ], [ 773857.705566571676172, 2711435.0 ], [ 773905.521956198383123, 2711335.0 ], [ 773954.140584035892971, 2711235.0 ], [ 774003.555156471789815, 2711135.0 ], [ 774053.750183754018508, 2711035.0 ], [ 774104.70002826070413, 2710935.0 ], [ 774156.366410964168608, 2710835.0 ], [ 774208.700755060766824, 2710735.0 ], [ 774261.641617819550447, 2710635.0 ], [ 774315.113990181591362, 2710535.0 ], [ 774369.030476452549919, 2710435.0 ], [ 774423.291186257265508, 2710335.0 ], [ 774477.783289448241703, 2710235.0 ], [ 774532.381768828141503, 2710135.0 ], [ 774586.94932536163833, 2710035.0 ], [ 774641.342078606947325, 2709935.0 ], [ 774695.405932603403926, 2709835.0 ], [ 774748.980025172117166, 2709735.0 ], [ 774801.898884360329248, 2709635.0 ], [ 774853.993572416482493, 2709535.0 ], [ 774905.094376224442385, 2709435.0 ], [ 774955.032726844074205, 2709335.0 ], [ 775003.644128709565848, 2709235.0 ], [ 775050.768296617665328, 2709135.0 ], [ 775096.251921763760038, 2709035.0 ], [ 775139.956781554152258, 2708935.0 ], [ 775181.756029043463059, 2708835.0 ], [ 775221.534876307006925, 2708735.0 ], [ 775259.195473824162036, 2708635.0 ], [ 775294.65807489247527, 2708535.0 ], [ 775327.859952275874093, 2708435.0 ], [ 775358.758981585153379, 2708335.0 ], [ 775387.33675988309551, 2708235.0 ], [ 775413.605850457795896, 2708135.0 ], [ 775437.576009858050384, 2708035.0 ], [ 775459.290083184256218, 2707935.0 ], [ 775478.812351705506444, 2707835.0 ], [ 775496.22746816300787, 2707735.0 ], [ 775511.638896864606068, 2707635.0 ], [ 775525.169415551121347, 2707535.0 ], [ 775536.958189855096862, 2707435.0 ], [ 775547.161147322040051, 2707335.0 ], [ 775555.947529978351668, 2707235.0 ], [ 775563.499199653393589, 2707135.0 ], [ 775570.009246213943698, 2707035.0 ], [ 775575.679646522388794, 2706935.0 ], [ 775580.718830069643445, 2706835.0 ], [ 775585.339246128918603, 2706735.0 ], [ 775589.757981117698364, 2706635.0 ], [ 775594.194642907357775, 2706535.0 ], [ 775598.868174724280834, 2706435.0 ], [ 775603.995804086909629, 2706335.0 ], [ 775609.792224991018884, 2706235.0 ], [ 775616.468504418269731, 2706135.0 ], [ 775624.230472661904059, 2706035.0 ], [ 775633.277976603596471, 2705935.0 ], [ 775643.804508444503881, 2705835.0 ], [ 775655.995626316638663, 2705735.0 ], [ 775670.029007861972786, 2705635.0 ], [ 775686.073719572974369, 2705535.0 ], [ 775704.289447322604246, 2705435.0 ], [ 775724.826602780027315, 2705335.0 ], [ 775747.810635382309556, 2705235.0 ], [ 775773.377623384236358, 2705135.0 ], [ 775801.648871256271377, 2705035.0 ], [ 775832.730887143407017, 2704935.0 ], [ 775866.718228981364518, 2704835.0 ], [ 775903.692316840868443, 2704735.0 ], [ 775943.719998546293937, 2704635.0 ], [ 775986.852554203826003, 2704535.0 ], [ 776033.125025318004191, 2704435.0 ], [ 776082.555796444299631, 2704335.0 ], [ 776135.147067535435781, 2704235.0 ], [ 776190.869109086575918, 2704135.0 ], [ 776249.674393663182855, 2704035.0 ], [ 776311.496870247414336, 2703935.0 ], [ 776376.239410674083047, 2703835.0 ], [ 776443.784164031967521, 2703735.0 ], [ 776513.98471855185926, 2703635.0 ], [ 776586.663003882742487, 2703535.0 ], [ 776661.611187391681597, 2703435.0 ], [ 776738.591664706706069, 2703335.0 ], [ 776817.337000038009137, 2703235.0 ], [ 776897.550514831789769, 2703135.0 ], [ 776978.90734519646503, 2703035.0 ], [ 777061.054213875206187, 2702935.0 ], [ 777143.611105191288516, 2702835.0 ], [ 777226.175890113227069, 2702735.0 ], [ 777308.328326625050977, 2702635.0 ], [ 777389.628456854727119, 2702535.0 ], [ 777469.623616399825551, 2702435.0 ], [ 777547.851151857641526, 2702335.0 ], [ 777623.843625993002206, 2702235.0 ], [ 777697.133160857367329, 2702135.0 ], [ 777767.256439247517847, 2702035.0 ], [ 777833.761674470501021, 2701935.0 ], [ 777896.21028104936704, 2701835.0 ], [ 777954.184712343034334, 2701735.0 ], [ 778007.29227859468665, 2701635.0 ], [ 778055.169704316183925, 2701535.0 ], [ 778097.486907732789405, 2701435.0 ], [ 778133.95622375246603, 2701335.0 ], [ 778164.330968131078407, 2701235.0 ], [ 778188.411084752180614, 2701135.0 ], [ 778206.047018688055687, 2701035.0 ], [ 778217.139265485107899, 2700935.0 ], [ 778221.642438573064283, 2700835.0 ], [ 778219.564061208744533, 2700735.0 ], [ 778210.967441297485493, 2700635.0 ], [ 778195.970807694946416, 2700535.0 ], [ 778174.74619921145495, 2700435.0 ], [ 778147.518076604115777, 2700335.0 ], [ 778114.560056558460928, 2700235.0 ], [ 778076.192328022210859, 2700135.0 ], [ 778032.778481379151344, 2700035.0 ], [ 777984.721063705394045, 2699935.0 ], [ 777932.456518314429559, 2699835.0 ], [ 777876.450436308514327, 2699735.0 ], [ 777817.192135830875486, 2699635.0 ], [ 777755.18814967898652, 2699535.0 ], [ 777690.955988111672923, 2699435.0 ], [ 777625.018328192294575, 2699335.0 ], [ 777557.896718058385886, 2699235.0 ], [ 777490.105253760120831, 2699135.0 ], [ 777422.145040546543896, 2699035.0 ], [ 777354.498694054316729, 2698935.0 ], [ 777287.624038221663795, 2698835.0 ], [ 777221.94966930989176, 2698735.0 ], [ 777157.870828497922048, 2698635.0 ], [ 777095.745809886371717, 2698535.0 ], [ 777035.892433163360693, 2698435.0 ], [ 776978.585305235232227, 2698335.0 ], [ 776924.054882851312868, 2698235.0 ], [ 776872.487021186738275, 2698135.0 ], [ 776824.020403894013725, 2698035.0 ], [ 776778.747943776659667, 2697935.0 ], [ 776736.718377727200277, 2697835.0 ], [ 776697.937106363824569, 2697735.0 ], [ 776662.368555329274386, 2697635.0 ], [ 776629.938842283794656, 2697535.0 ], [ 776600.538857555715367, 2697435.0 ], [ 776574.027578057954088, 2697335.0 ], [ 776550.235897316364571, 2697235.0 ], [ 776528.970844066701829, 2697135.0 ], [ 776510.019298754981719, 2697035.0 ], [ 776493.150342973996885, 2696935.0 ], [ 776478.123471510829404, 2696835.0 ], [ 776464.69073296780698, 2696735.0 ], [ 776452.599410143215209, 2696635.0 ], [ 776441.596544064348564, 2696535.0 ], [ 776431.434411682421342, 2696435.0 ], [ 776421.872510095476173, 2696335.0 ], [ 776412.67782996292226, 2696235.0 ], [ 776403.623289265437052, 2696135.0 ], [ 776394.523567513446324, 2696035.0 ], [ 776385.195052667055279, 2695935.0 ], [ 776375.474232070497237, 2695835.0 ], [ 776365.219594163587317, 2695735.0 ], [ 776354.312261029030196, 2695635.0 ], [ 776342.656941951136105, 2695535.0 ], [ 776330.182815009844489, 2695435.0 ], [ 776316.842634085332975, 2695335.0 ], [ 776302.61252327542752, 2695235.0 ], [ 776287.491897835512646, 2695135.0 ], [ 776271.501513902214356, 2695035.0 ], [ 776254.683130717370659, 2694935.0 ], [ 776237.09853204479441, 2694835.0 ], [ 776218.826353910379112, 2694735.0 ], [ 776199.959787981584668, 2694635.0 ], [ 776180.605506492196582, 2694535.0 ], [ 776160.880177163169719, 2694435.0 ], [ 776140.908735310658813, 2694335.0 ], [ 776120.821044752025045, 2694235.0 ], [ 776100.74965040886309, 2694135.0 ], [ 776080.827297597541474, 2694035.0 ], [ 776061.183828544919379, 2693935.0 ], [ 776041.944160432787612, 2693835.0 ], [ 776023.226139338687062, 2693735.0 ], [ 776005.138102745520882, 2693635.0 ], [ 775987.77691717504058, 2693535.0 ], [ 775971.226804779609665, 2693435.0 ], [ 775955.557471408741549, 2693335.0 ], [ 775940.834016315173358, 2693235.0 ], [ 775927.085132912732661, 2693135.0 ], [ 775914.326709470362402, 2693035.0 ], [ 775902.562675495049916, 2692935.0 ], [ 775891.779564036405645, 2692835.0 ], [ 775881.946904751006514, 2692735.0 ], [ 775873.01818293496035, 2692635.0 ], [ 775864.931381437345408, 2692535.0 ], [ 775857.609707150608301, 2692435.0 ], [ 775850.962479270645417, 2692335.0 ], [ 775844.887035686173476, 2692235.0 ], [ 775839.270342324627563, 2692135.0 ], [ 775833.990385728538968, 2692035.0 ], [ 775828.917754739290103, 2691935.0 ], [ 775823.917677621240728, 2691835.0 ], [ 775818.85130316100549, 2691735.0 ], [ 775813.57830485177692, 2691635.0 ], [ 775807.957658325089142, 2691535.0 ], [ 775801.850562794483267, 2691435.0 ], [ 775795.121601442573592, 2691335.0 ], [ 775787.64005152520258, 2691235.0 ], [ 775779.282112651038915, 2691135.0 ], [ 775769.931650717742741, 2691035.0 ], [ 775759.48409097280819, 2690935.0 ], [ 775747.845608439296484, 2690835.0 ], [ 775734.937439113855362, 2690735.0 ], [ 775720.685210768599063, 2690635.0 ], [ 775705.036246963194571, 2690535.0 ], [ 775687.951661872328259, 2690435.0 ], [ 775669.407682202989236, 2690335.0 ], [ 775649.395240084733814, 2690235.0 ], [ 775627.921679603401572, 2690135.0 ], [ 775605.012531052809209, 2690035.0 ], [ 775580.707003626972437, 2689935.0 ], [ 775555.060651721665636, 2689835.0 ], [ 775528.143516532727517, 2689735.0 ], [ 775500.039840341662057, 2689635.0 ], [ 775470.847759109688923, 2689535.0 ], [ 775440.677635532803833, 2689435.0 ], [ 775409.651073606451973, 2689335.0 ], [ 775377.898544450872578, 2689235.0 ], [ 775345.557858532993123, 2689135.0 ], [ 775312.77396160538774, 2689035.0 ], [ 775279.696932899416424, 2688935.0 ], [ 775246.480031886720099, 2688835.0 ], [ 775213.277997014578432, 2688735.0 ], [ 775180.245884436648339, 2688635.0 ], [ 775147.537734340294264, 2688535.0 ], [ 775115.303770496626385, 2688435.0 ], [ 775083.6912469699746, 2688335.0 ], [ 775052.842285722843371, 2688235.0 ], [ 775022.890563915134408, 2688135.0 ], [ 774993.963223691098392, 2688035.0 ], [ 774966.177831690642051, 2687935.0 ], [ 774939.643244401318952, 2687835.0 ], [ 774914.458368607331067, 2687735.0 ], [ 774890.711631949408911, 2687635.0 ], [ 774868.481152469408698, 2687535.0 ], [ 774847.834445716929622, 2687435.0 ], [ 774828.828422664897516, 2687335.0 ], [ 774811.509213172015734, 2687235.0 ], [ 774795.911295630969107, 2687135.0 ], [ 774782.058283120277338, 2687035.0 ], [ 774769.962223309325054, 2686935.0 ], [ 774759.626339714624919, 2686835.0 ], [ 774751.043133494094945, 2686735.0 ], [ 774744.194536881521344, 2686635.0 ], [ 774739.052625772194006, 2686535.0 ], [ 774735.579596066614613, 2686435.0 ], [ 774733.72844017285388, 2686335.0 ], [ 774733.442949985503219, 2686235.0 ], [ 774734.657382776611485, 2686135.0 ], [ 774737.298812738968991, 2686035.0 ], [ 774741.286448836443014, 2685935.0 ], [ 774746.531371368328109, 2685835.0 ], [ 774752.937473388854414, 2685735.0 ], [ 774760.402090942487121, 2685635.0 ], [ 774768.816532079363242, 2685535.0 ], [ 774778.067220885190181, 2685435.0 ], [ 774788.035412797355093, 2685335.0 ], [ 774798.599262670031749, 2685235.0 ], [ 774809.633749112952501, 2685135.0 ], [ 774821.012128258938901, 2685035.0 ], [ 774832.607103619491681, 2684935.0 ], [ 774844.29216378799174, 2684835.0 ], [ 774855.942016936372966, 2684735.0 ], [ 774867.434169693500735, 2684635.0 ], [ 774878.6494816376362, 2684535.0 ], [ 774889.473916898597963, 2684435.0 ], [ 774899.798485782928765, 2684335.0 ], [ 774909.521266283467412, 2684235.0 ], [ 774918.547600830555893, 2684135.0 ], [ 774926.79080106317997, 2684035.0 ], [ 774934.17281650158111, 2683935.0 ], [ 774940.624517086311243, 2683835.0 ], [ 774946.085681260447018, 2683735.0 ], [ 774950.505450333468616, 2683635.0 ], [ 774953.84239028126467, 2683535.0 ], [ 774956.063718122779392, 2683435.0 ], [ 774957.144261238980107, 2683335.0 ], [ 774957.06766822503414, 2683235.0 ], [ 774955.824623089516535, 2683135.0 ], [ 774953.412435103324242, 2683035.0 ], [ 774949.833681094576605, 2682935.0 ], [ 774945.096965627162717, 2682835.0 ], [ 774939.213543535326608, 2682735.0 ], [ 774932.198191635776311, 2682635.0 ], [ 774924.067796651273966, 2682535.0 ], [ 774914.840257687261328, 2682435.0 ], [ 774904.534608396235853, 2682335.0 ], [ 774893.170357138267718, 2682235.0 ], [ 774880.76655182428658, 2682135.0 ], [ 774867.341093567665666, 2682035.0 ], [ 774852.911539921769872, 2681935.0 ], [ 774837.493796826340258, 2681835.0 ], [ 774821.102281756466255, 2681735.0 ], [ 774803.751024433411658, 2681635.0 ], [ 774785.452896753326058, 2681535.0 ], [ 774766.220590600045398, 2681435.0 ], [ 774746.066566861351021, 2681335.0 ], [ 774725.003355409484357, 2681235.0 ], [ 774703.044672224903479, 2681135.0 ], [ 774680.207190144457854, 2681035.0 ], [ 774656.508942419546656, 2680935.0 ], [ 774631.971330004162155, 2680835.0 ], [ 774606.619507030001841, 2680735.0 ], [ 774580.482460852595977, 2680635.0 ], [ 774553.594033324974589, 2680535.0 ], [ 774525.993821508600377, 2680435.0 ], [ 774497.726110786781646, 2680335.0 ], [ 774468.840977696585469, 2680235.0 ], [ 774439.394087030668743, 2680135.0 ], [ 774409.446393307996914, 2680035.0 ], [ 774379.06371560995467, 2679935.0 ], [ 774348.315924140159041, 2679835.0 ], [ 774317.278216982609592, 2679735.0 ], [ 774286.028808950562961, 2679635.0 ], [ 774254.647723066387698, 2679535.0 ], [ 774223.215509393718094, 2679435.0 ], [ 774191.813085144385695, 2679335.0 ], [ 774160.520055515575223, 2679235.0 ], [ 774129.413317707250826, 2679135.0 ], [ 774098.56596796377562, 2679035.0 ], [ 774068.045561635517515, 2678935.0 ], [ 774037.912858255207539, 2678835.0 ], [ 774008.2176585693378, 2678735.0 ], [ 773979.006773303146474, 2678635.0 ], [ 773950.31202399416361, 2678535.0 ], [ 773922.154139241436496, 2678435.0 ], [ 773894.542435890762135, 2678335.0 ], [ 773867.474190893117338, 2678235.0 ], [ 773840.932970113237388, 2678135.0 ], [ 773814.886893759248778, 2678035.0 ], [ 773789.292782007716596, 2677935.0 ], [ 773764.094986457028426, 2677835.0 ], [ 773739.225205816910602, 2677735.0 ], [ 773714.604199332301505, 2677635.0 ], [ 773690.141984549700283, 2677535.0 ], [ 773665.739954730379395, 2677435.0 ], [ 773641.292162831989117, 2677335.0 ], [ 773616.68787477305159, 2677235.0 ], [ 773591.813231205800548, 2677135.0 ], [ 773566.551175125525333, 2677035.0 ], [ 773540.785631173173897, 2676935.0 ], [ 773514.402168545406312, 2676835.0 ], [ 773487.290976427146234, 2676735.0 ], [ 773459.348176481085829, 2676635.0 ], [ 773430.477360220393166, 2676535.0 ], [ 773400.592644871678203, 2676435.0 ], [ 773369.617392240208574, 2676335.0 ], [ 773337.487928275484592, 2676235.0 ], [ 773304.155319333076477, 2676135.0 ], [ 773269.583349830005318, 2676035.0 ], [ 773233.751185443252325, 2675935.0 ], [ 773196.652164593455382, 2675835.0 ], [ 773158.294813464512117, 2675735.0 ], [ 773118.702268590102904, 2675635.0 ], [ 773077.911900075618178, 2675535.0 ], [ 773035.97422874707263, 2675435.0 ], [ 772992.952602587640285, 2675335.0 ], [ 772948.921702108345926, 2675235.0 ], [ 772903.967216165503487, 2675135.0 ], [ 772858.183327420963906, 2675035.0 ], [ 772811.672375240596011, 2674935.0 ], [ 772764.541390677448362, 2674835.0 ], [ 772716.902334745042026, 2674735.0 ], [ 772668.870717557496391, 2674635.0 ], [ 772620.563495197333395, 2674535.0 ], [ 772572.098110153339803, 2674435.0 ], [ 772523.591040324419737, 2674335.0 ], [ 772475.156398561084643, 2674235.0 ], [ 772426.904733106261119, 2674135.0 ], [ 772378.942793580121361, 2674035.0 ], [ 772331.372437413665466, 2673935.0 ], [ 772284.29039471456781, 2673835.0 ], [ 772237.787458828534, 2673735.0 ], [ 772191.948303319280967, 2673635.0 ], [ 772146.851310676895082, 2673535.0 ], [ 772102.568468045326881, 2673435.0 ], [ 772059.166411104262806, 2673335.0 ], [ 772016.705598351545632, 2673235.0 ], [ 771975.241194439237006, 2673135.0 ], [ 771934.82337569957599, 2673035.0 ], [ 771895.49744810233824, 2672935.0 ], [ 771857.304400587454438, 2672835.0 ], [ 771820.28161508240737, 2672735.0 ], [ 771784.463483284926042, 2672635.0 ], [ 771749.881847733282484, 2672535.0 ], [ 771716.566178021486849, 2672435.0 ], [ 771684.544207168393768, 2672335.0 ], [ 771653.842130072065629, 2672235.0 ], [ 771624.484773293370381, 2672135.0 ], [ 771596.496041717589833, 2672035.0 ], [ 771569.898950737668201, 2671935.0 ], [ 771544.71577511401847, 2671835.0 ], [ 771520.967923530843109, 2671735.0 ], [ 771498.675912938429974, 2671635.0 ], [ 771477.858882987988181, 2671535.0 ], [ 771458.534901069826446, 2671435.0 ], [ 771440.720845460076816, 2671335.0 ], [ 771424.431308812345378, 2671235.0 ], [ 771409.678614918026142, 2671135.0 ], [ 771396.472534801461734, 2671035.0 ], [ 771384.819709980394691, 2670935.0 ], [ 771374.722512905485928, 2670835.0 ], [ 771366.180547558469698, 2670735.0 ], [ 771359.188777751289308, 2670635.0 ], [ 771353.737468106206506, 2670535.0 ], [ 771349.812412421451882, 2670435.0 ], [ 771347.393475363613106, 2670335.0 ], [ 771346.454852383350953, 2670235.0 ], [ 771346.965062916860916, 2670135.0 ], [ 771348.88679210934788, 2670035.0 ], [ 771352.176509192562662, 2669935.0 ], [ 771356.784967552055605, 2669835.0 ], [ 771362.657465210184455, 2669735.0 ], [ 771369.732865344849415, 2669635.0 ], [ 771377.945197308668867, 2669535.0 ], [ 771387.223051193286665, 2669435.0 ], [ 771397.490618068142794, 2669335.0 ], [ 771408.668161142617464, 2669235.0 ], [ 771420.672167886164971, 2669135.0 ], [ 771433.415161691838875, 2669035.0 ], [ 771446.808190515381284, 2668935.0 ], [ 771460.760265994584188, 2668835.0 ], [ 771475.179619920789264, 2668735.0 ] ] } },
{ "type": "Feature", "properties": { "bank": "E", "source_passes": "20150119_S1A,20150308_S1A,20150401_S1A,20150425_S1A,20150519_S1A,20150612_S1A,20150706_S1A,20150823_S1A,20151010_S1A,20151127_S1A" }, "geometry": { "type": "LineString", "coordinates": [ [ 769188.175080749671906, 2750635.0 ], [ 769197.41701347916387, 2750535.0 ], [ 769208.424018114805222, 2750435.0 ], [ 769221.387487852363847, 2750335.0 ], [ 769236.502660939004272, 2750235.0 ], [ 769253.96579437458422, 2750135.0 ], [ 769273.972496050409973, 2750035.0 ], [ 769296.715142285916954, 2749935.0 ], [ 769322.38032389304135, 2749835.0 ], [ 769351.146738181356341, 2749735.0 ], [ 769383.181966275325976, 2749635.0 ], [ 769418.640238142921589, 2749535.0 ], [ 769457.66014393127989, 2749435.0 ], [ 769500.361786284018308, 2749335.0 ], [ 769546.845402719802223, 2749235.0 ], [ 769597.18891140120104, 2749135.0 ], [ 769651.445040039368905, 2749035.0 ], [ 769709.642905535642058, 2748935.0 ], [ 769771.783581536496058, 2748835.0 ], [ 769837.841453484026715, 2748735.0 ], [ 769907.763095534872264, 2748635.0 ], [ 769981.467713045072742, 2748535.0 ], [ 770058.847202400444075, 2748435.0 ], [ 770139.767475583706982, 2748335.0 ], [ 770224.069083203561604, 2748235.0 ], [ 770311.569408465409651, 2748135.0 ], [ 770402.064308067434467, 2748035.0 ], [ 770495.330146692809649, 2747935.0 ], [ 770591.126964861759916, 2747835.0 ], [ 770689.199905304354616, 2747735.0 ], [ 770789.283971122000366, 2747635.0 ], [ 770891.106306961853988, 2747535.0 ], [ 770994.389095605351031, 2747435.0 ], [ 771098.853098851628602, 2747335.0 ], [ 771204.22107281384524, 2747235.0 ], [ 771310.219839276280254, 2747135.0 ], [ 771416.584291700157337, 2747035.0 ], [ 771523.060124757466838, 2746935.0 ], [ 771629.406204988132231, 2746835.0 ], [ 771735.397247576271184, 2746735.0 ], [ 771840.825060219853185, 2746635.0 ], [ 771945.500767417368479, 2746535.0 ], [ 772049.256226729718037, 2746435.0 ], [ 772151.944999758154154, 2746335.0 ], [ 772253.443282215856016, 2746235.0 ], [ 772353.649952681851573, 2746135.0 ], [ 772452.486434513935819, 2746035.0 ], [ 772549.896657284349203, 2745935.0 ], [ 772645.845888020237908, 2745835.0 ], [ 772740.320726816309616, 2745735.0 ], [ 772833.326837764354423, 2745635.0 ], [ 772924.887357248924673, 2745535.0 ], [ 773015.042281376197934, 2745435.0 ], [ 773103.846005783532746, 2745335.0 ], [ 773191.363980015972629, 2745235.0 ], [ 773277.672434241278097, 2745135.0 ], [ 773362.854186707292683, 2745035.0 ], [ 773446.997450804919936, 2744935.0 ], [ 773530.193859521299601, 2744835.0 ], [ 773612.536367319058627, 2744735.0 ], [ 773694.116260347422212, 2744635.0 ], [ 773775.02161916915793, 2744535.0 ], [ 773855.335117665003054, 2744435.0 ], [ 773935.132439501699992, 2744335.0 ], [ 774014.480829860316589, 2744235.0 ], [ 774093.437462257221341, 2744135.0 ], [ 774172.049203635193408, 2744035.0 ], [ 774250.351695083081722, 2743935.0 ], [ 774328.368321727029979, 2743835.0 ], [ 774406.110409777029417, 2743735.0 ], [ 774483.576035844744183, 2743635.0 ], [ 774560.751048102742061, 2743535.0 ], [ 774637.608746274374425, 2743435.0 ], [ 774714.111493103671819, 2743335.0 ], [ 774790.210423909593374, 2743235.0 ], [ 774865.845876031671651, 2743135.0 ], [ 774940.948797042830847, 2743035.0 ], [ 775015.443340369616635, 2742935.0 ], [ 775089.245681601576507, 2742835.0 ], [ 775162.269249361590482, 2742735.0 ], [ 775234.421747324522585, 2742635.0 ], [ 775305.606522299116477, 2742535.0 ], [ 775375.72594182100147, 2742435.0 ], [ 775444.682495029061101, 2742335.0 ], [ 775512.379389026667923, 2742235.0 ], [ 775578.717630653991364, 2742135.0 ], [ 775643.610728860134259, 2742035.0 ], [ 775706.969315877766348, 2741935.0 ], [ 775768.709112961194478, 2741835.0 ], [ 775828.751764159183949, 2741735.0 ], [ 775887.023477024980821, 2741635.0 ], [ 775943.456516648409888, 2741535.0 ], [ 775997.990948933060281, 2741435.0 ], [ 776050.571783883846365, 2741335.0 ], [ 776101.148397911223583, 2741235.0 ], [ 776149.68370025488548, 2741135.0 ], [ 776196.143359299167059, 2741035.0 ], [ 776240.498651146772318, 2740935.0 ], [ 776282.727180635440163, 2740835.0 ], [ 776322.812998298788443, 2740735.0 ], [ 776360.74705808411818, 2740635.0 ], [ 776396.526053565205075, 2740535.0 ], [ 776430.153247631737031, 2740435.0 ], [ 776461.637624686816707, 2740335.0 ], [ 776490.994039823533967, 2740235.0 ], [ 776518.243854602333158, 2740135.0 ], [ 776543.414608602412045, 2740035.0 ], [ 776566.540551318670623, 2739935.0 ], [ 776587.663204009062611, 2739835.0 ], [ 776606.830851265462115, 2739735.0 ], [ 776624.09927137021441, 2739635.0 ], [ 776639.531909157172777, 2739535.0 ], [ 776653.201036059297621, 2739435.0 ], [ 776665.187715514446609, 2739335.0 ], [ 776675.580892664380372, 2739235.0 ], [ 776684.47848818032071, 2739135.0 ], [ 776691.990211540251039, 2739035.0 ], [ 776698.233250516001135, 2738935.0 ], [ 776703.332047322066501, 2738835.0 ], [ 776707.419313988299109, 2738735.0 ], [ 776710.64067876059562, 2738635.0 ], [ 776713.143586801365018, 2738535.0 ], [ 776715.084951059310697, 2738435.0 ], [ 776716.627611444098875, 2738335.0 ], [ 776717.94365761638619, 2738235.0 ], [ 776719.202188933966681, 2738135.0 ], [ 776720.578778370516375, 2738035.0 ], [ 776722.250763481482863, 2737935.0 ], [ 776724.397424645954743, 2737835.0 ], [ 776727.197019830113277, 2737735.0 ], [ 776730.829304336104542, 2737635.0 ], [ 776735.471893290174194, 2737535.0 ], [ 776741.30045032443013, 2737435.0 ], [ 776748.486827550223097, 2737335.0 ], [ 776757.19834858737886, 2737235.0 ], [ 776767.598713662242517, 2737135.0 ], [ 776779.848460467066616, 2737035.0 ], [ 776794.102484878734685, 2736935.0 ], [ 776810.513173141167499, 2736835.0 ], [ 776829.228620156180114, 2736735.0 ], [ 776850.393823693972081, 2736635.0 ], [ 776874.150287270313129, 2736535.0 ], [ 776900.638206844916567, 2736435.0 ], [ 776929.995652689598501, 2736335.0 ], [ 776962.361016927054152, 2736235.0 ], [ 776997.871317393844947, 2736135.0 ], [ 777036.663963346160017, 2736035.0 ], [ 777078.879773879772983, 2735935.0 ], [ 777124.655884299078025, 2735835.0 ], [ 777174.133106601424515, 2735735.0 ], [ 777227.452291810070165, 2735635.0 ], [ 777284.754461358650587, 2735535.0 ], [ 777346.179453989723697, 2735435.0 ], [ 777411.865805713576265, 2735335.0 ], [ 777481.9491208253894, 2735235.0 ], [ 777556.560633276589215, 2735135.0 ], [ 777635.823128347867168, 2735035.0 ], [ 777719.849575642379932, 2734935.0 ], [ 777808.740385740529746, 2734835.0 ], [ 777902.580744215403683, 2734735.0 ], [ 778001.437971774023026, 2734635.0 ], [ 778105.357658821973018, 2734535.0 ], [ 778214.36087881855201, 2734435.0 ], [ 778328.440968488692306, 2734335.0 ], [ 778447.560570391477086, 2734235.0 ], [ 778571.649257777142338, 2734135.0 ], [ 778700.60129750170745, 2734035.0 ], [ 778834.273427324485965, 2733935.0 ], [ 778972.483830392826349, 2733835.0 ], [ 779115.010712921037339, 2733735.0 ], [ 779261.592816932941787, 2733635.0 ], [ 779411.929845875012688, 2733535.0 ], [ 779565.682771809748374, 2733435.0 ], [ 779722.476356194587424, 2733335.0 ], [ 779881.902551857521757, 2733235.0 ], [ 780043.52188183774706, 2733135.0 ], [ 780206.86851333710365, 2733035.0 ], [ 780371.454085814766586, 2732935.0 ], [ 780536.772306469152682, 2732835.0 ], [ 780702.303688552114181, 2732735.0 ], [ 780867.522746032569557, 2732635.0 ], [ 781031.902203116565943, 2732535.0 ], [ 781194.919435209711082, 2732435.0 ], [ 781356.061579050146975, 2732335.0 ], [ 781514.831516716745682, 2732235.0 ], [ 781670.752754853572696, 2732135.0 ], [ 781823.374166097259149, 2732035.0 ], [ 781972.274373005726375, 2731935.0 ], [ 782117.06535029981751, 2731835.0 ], [ 782257.396214738837443, 2731735.0 ], [ 782392.956087107304484, 2731635.0 ], [ 782523.475263222469948, 2731535.0 ], [ 782648.726923223701306, 2731435.0 ], [ 782768.527124746469781, 2731335.0 ], [ 782882.735539827961475, 2731235.0 ], [ 782991.254034442594275, 2731135.0 ], [ 783094.024970634724014, 2731035.0 ], [ 783191.030391593347304, 2730935.0 ], [ 783282.289330237312242, 2730835.0 ], [ 783367.855174020049162, 2730735.0 ], [ 783447.81302672997117, 2730635.0 ], [ 783522.27693949546665, 2730535.0 ], [ 783591.386252420023084, 2730435.0 ], [ 783655.301611317438073, 2730335.0 ], [ 783714.202680172864348, 2730235.0 ], [ 783768.284902858431451, 2730135.0 ], [ 783817.755787085625343, 2730035.0 ], [ 783862.832999677979387, 2729935.0 ], [ 783903.740701609523967, 2729835.0 ], [ 783940.707022995804437, 2729735.0 ], [ 783973.962879911065102, 2729635.0 ], [ 784003.738947631558403, 2729535.0 ], [ 784030.263782680267468, 2729435.0 ], [ 784053.762765648541972, 2729335.0 ], [ 784074.459580759750679, 2729235.0 ], [ 784092.570671849302016, 2729135.0 ], [ 784108.305634017451666, 2729035.0 ], [ 784121.868069290649146, 2728935.0 ], [ 784133.453206786187366, 2728835.0 ], [ 784143.249833978712559, 2728735.0 ], [ 784151.438857769127935, 2728635.0 ], [ 784158.193422396783717, 2728535.0 ], [ 784163.679521866957657, 2728435.0 ], [ 784168.055480570765212, 2728335.0 ], [ 784171.472527128877118, 2728235.0 ], [ 784174.075143843423575, 2728135.0 ], [ 784176.001304315286689, 2728035.0 ], [ 784177.382661875220947, 2727935.0 ], [ 784178.344644712284207, 2727835.0 ], [ 784179.007859345525503, 2727735.0 ], [ 784179.48756248713471, 2727635.0 ], [ 784179.89379305485636, 2727535.0 ], [ 784180.332308029406704, 2727435.0 ], [ 784180.904355165432207, 2727335.0 ], [ 784181.707235527224839, 2727235.0 ], [ 784182.834585227421485, 2727135.0 ], [ 784184.374880027142353, 2727035.0 ], [ 784186.414010063628666, 2726935.0 ], [ 784189.035394723992795, 2726835.0 ], [ 784192.31946357653942, 2726735.0 ], [ 784196.338884779834189, 2726635.0 ], [ 784201.168126488686539, 2726535.0 ], [ 784206.875163726392202, 2726435.0 ], [ 784213.524308624444529, 2726335.0 ], [ 784221.172358128125779, 2726235.0 ], [ 784229.879267580690794, 2726135.0 ], [ 784239.695084489765577, 2726035.0 ], [ 784250.664960003574379, 2725935.0 ], [ 784262.827600301243365, 2725835.0 ], [ 784276.216144233942032, 2725735.0 ], [ 784290.854833942954428, 2725635.0 ], [ 784306.763035585870966, 2725535.0 ], [ 784323.95294171012938, 2725435.0 ], [ 784342.430078189703636, 2725335.0 ], [ 784362.192893426981755, 2725235.0 ], [ 784383.231849395320751, 2725135.0 ], [ 784405.529381767148152, 2725035.0 ], [ 784429.060207469156012, 2724935.0 ], [ 784453.791366909979843, 2724835.0 ], [ 784479.682474968605675, 2724735.0 ], [ 784506.686289135366678, 2724635.0 ], [ 784534.749169123591855, 2724535.0 ], [ 784563.810565995983779, 2724435.0 ], [ 784593.804667025571689, 2724335.0 ], [ 784624.659756725770421, 2724235.0 ], [ 784656.301194514264353, 2724135.0 ], [ 784688.650643988046795, 2724035.0 ], [ 784721.624904416385107, 2723935.0 ], [ 784755.143714624573477, 2723835.0 ], [ 784789.123374048271216, 2723735.0 ], [ 784823.480229178676382, 2723635.0 ], [ 784858.131977810990065, 2723535.0 ], [ 784892.99900499463547, 2723435.0 ], [ 784928.004221245646477, 2723335.0 ], [ 784963.073928632540628, 2723235.0 ], [ 784998.139570753555745, 2723135.0 ], [ 785033.138970150845125, 2723035.0 ], [ 785068.015938467811793, 2722935.0 ], [ 785102.721273578121327, 2722835.0 ], [ 785137.212308858754113, 2722735.0 ], [ 785171.453827535733581, 2722635.0 ], [ 785205.418597355717793, 2722535.0 ], [ 785239.086846525780857, 2722435.0 ], [ 785272.446208295645192, 2722335.0 ], [ 785305.491889516706578, 2722235.0 ], [ 785338.225698958500288, 2722135.0 ], [ 785370.655233828118071, 2722035.0 ], [ 785402.794161150697619, 2721935.0 ], [ 785434.660837343311869, 2721835.0 ], [ 785466.277271650964394, 2721735.0 ], [ 785497.668708469602279, 2721635.0 ], [ 785528.862433456000872, 2721535.0 ], [ 785559.886582819162868, 2721435.0 ], [ 785590.769755895598792, 2721335.0 ], [ 785621.539577516261488, 2721235.0 ], [ 785652.221337198629044, 2721135.0 ], [ 785682.838187450543046, 2721035.0 ], [ 785713.410047909710556, 2720935.0 ], [ 785743.952764777699485, 2720835.0 ], [ 785774.478144291671924, 2720735.0 ], [ 785804.993191623245366, 2720635.0 ], [ 785835.500197450397536, 2720535.0 ], [ 785865.997111694770865, 2720435.0 ], [ 785896.476947164395824, 2720335.0 ], [ 785926.928459872491658, 2720235.0 ], [ 785957.337345776613802, 2720135.0 ], [ 785987.686024486320093, 2720035.0 ], [ 786017.955540674272925, 2719935.0 ], [ 786048.124811250716448, 2719835.0 ], [ 786078.17144082474988, 2719735.0 ], [ 786108.074432041030377, 2719635.0 ], [ 786137.813839485868812, 2719535.0 ], [ 786167.370846918551251, 2719435.0 ], [ 786196.7307412144728, 2719335.0 ], [ 786225.881367636029609, 2719235.0 ], [ 786254.81599280575756, 2719135.0 ], [ 786283.531398223363794, 2719035.0 ], [ 786312.028908588341437, 2718935.0 ], [ 786340.315258847549558, 2718835.0 ], [ 786368.402359304134734, 2718735.0 ], [ 786396.306574126356281, 2718635.0 ], [ 786424.048505377024412, 2718535.0 ], [ 786451.652544796466827, 2718435.0 ], [ 786479.14673914317973, 2718335.0 ], [ 786506.56079849076923, 2718235.0 ], [ 786533.926548578543589, 2718135.0 ], [ 786561.275958885787986, 2718035.0 ], [ 786588.640357062453404, 2717935.0 ], [ 786616.049688829574734, 2717835.0 ], [ 786643.531121700187214, 2717735.0 ], [ 786671.108199132722802, 2717635.0 ], [ 786698.799706968478858, 2717535.0 ], [ 786726.618649974698201, 2717435.0 ], [ 786754.571977892075665, 2717335.0 ], [ 786782.659955973620526, 2717235.0 ], [ 786810.875304394867271, 2717135.0 ], [ 786839.203029108466581, 2717035.0 ], [ 786867.620178442099132, 2716935.0 ], [ 786896.095754540641792, 2716835.0 ], [ 786924.591389382025227, 2716735.0 ], [ 786953.060649150051177, 2716635.0 ], [ 786981.449995367671363, 2716535.0 ], [ 787009.699208012665622, 2716435.0 ], [ 787037.742197781568393, 2716335.0 ], [ 787065.507793350727297, 2716235.0 ], [ 787092.920771152013913, 2716135.0 ], [ 787119.902239785878919, 2716035.0 ], [ 787146.371132485102862, 2715935.0 ], [ 787172.245260252268054, 2715835.0 ], [ 787197.44243860419374, 2715735.0 ], [ 787221.88082800025586, 2715635.0 ], [ 787245.480736470781267, 2715535.0 ], [ 787268.16481711610686, 2715435.0 ], [ 787289.859629788901657, 2715335.0 ], [ 787310.495713095297106, 2715235.0 ], [ 787330.008869736921042, 2715135.0 ], [ 787348.341006318689324, 2715035.0 ], [ 787365.439771282719448, 2714935.0 ], [ 787381.259451578487642, 2714835.0 ], [ 787395.761347345425747, 2714735.0 ], [ 787408.913629582151771, 2714635.0 ], [ 787420.692254401161335, 2714535.0 ], [ 787431.080094704870135, 2714435.0 ], [ 787440.067282933043316, 2714335.0 ], [ 787447.651241523562931, 2714235.0 ], [ 787453.835435075685382, 2714135.0 ], [ 787458.631649478920735, 2714035.0 ], [ 787462.058535631396808, 2713935.0 ], [ 787464.141481487778947, 2713835.0 ], [ 787464.911983268568292, 2713735.0 ], [ 787464.408120244042948, 2713635.0 ], [ 787462.672486584982835, 2713535.0 ], [ 787459.752636011689901, 2713435.0 ], [ 787455.702055212575942, 2713335.0 ], [ 787450.57851502019912, 2713235.0 ], [ 787444.444018759182654, 2713135.0 ], [ 787437.364587553427555, 2713035.0 ], [ 787429.410072802915238, 2712935.0 ], [ 787420.65229713532608, 2712835.0 ], [ 787411.165966861299239, 2712735.0 ], [ 787401.027472916874103, 2712635.0 ], [ 787390.314359684707597, 2712535.0 ], [ 787379.104779380490072, 2712435.0 ], [ 787367.476612304802984, 2712335.0 ], [ 787355.506611244287342, 2712235.0 ], [ 787343.269763694144785, 2712135.0 ], [ 787330.837954890565015, 2712035.0 ], [ 787318.27920918201562, 2711935.0 ], [ 787305.656987737980671, 2711835.0 ], [ 787293.029230249696411, 2711735.0 ], [ 787280.447300215717405, 2711635.0 ], [ 787267.955520970514044, 2711535.0 ], [ 787255.589783538714983, 2711435.0 ], [ 787243.376978368032724, 2711335.0 ], [ 787231.335116462316364, 2711235.0 ], [ 787219.472298005712219, 2711135.0 ], [ 787207.786315485602245, 2711035.0 ], [ 787196.263974090456031, 2710935.0 ], [ 787184.882786009460688, 2710835.0 ], [ 787173.610508117009886, 2710735.0 ], [ 787162.405237547238357, 2710635.0 ], [ 787151.215890141669661, 2710535.0 ], [ 787139.983272573910654, 2710435.0 ], [ 787128.641411160700954, 2710335.0 ], [ 787117.117803133791313, 2710235.0 ], [ 787105.335421176743694, 2710135.0 ], [ 787093.214368374436162, 2710035.0 ], [ 787080.672514481469989, 2709935.0 ], [ 787067.627247318741865, 2709835.0 ], [ 787053.99743316823151, 2709735.0 ], [ 787039.704713802668266, 2709635.0 ], [ 787024.674191816942766, 2709535.0 ], [ 787008.837169161066413, 2709435.0 ], [ 786992.132132141268812, 2709335.0 ], [ 786974.505722133093514, 2709235.0 ], [ 786955.91316311317496, 2709135.0 ], [ 786936.320553682395257, 2709035.0 ], [ 786915.704138410743326, 2708935.0 ], [ 786894.051759690162726, 2708835.0 ], [ 786871.362092403112911, 2708735.0 ], [ 786847.644967059371993, 2708635.0 ], [ 786822.922496540471911, 2708535.0 ], [ 786797.225829074624926, 2708435.0 ], [ 786770.598151201149449, 2708335.0 ], [ 786743.08546933112666, 2708235.0 ], [ 786714.751944143557921, 2708135.0 ], [ 786685.665867858449928, 2708035.0 ], [ 786655.899954238208011, 2707935.0 ], [ 786625.532493193401024, 2707835.0 ], [ 786594.645892328233458, 2707735.0 ], [ 786563.323372247512452, 2707635.0 ], [ 786531.649893468827941, 2707535.0 ], [ 786499.708191910409369, 2707435.0 ], [ 786467.578370395349339, 2707335.0 ], [ 786435.337869922164828, 2707235.0 ], [ 786403.058083496522158, 2707135.0 ], [ 786370.804269791580737, 2707035.0 ], [ 786338.638467442709953, 2706935.0 ], [ 786306.611214281525463, 2706835.0 ], [ 786274.765233570127748, 2706735.0 ], [ 786243.13407917402219, 2706635.0 ], [ 786211.741277877008542, 2706535.0 ], [ 786180.601249177707359, 2706435.0 ], [ 786149.717608763254248, 2706335.0 ], [ 786119.084620862035081, 2706235.0 ], [ 786088.690638812957332, 2706135.0 ], [ 786058.507601297576912, 2706035.0 ], [ 786028.502015443402342, 2705935.0 ], [ 785998.635092761134729, 2705835.0 ], [ 785968.853228019899689, 2705735.0 ], [ 785939.099196876049973, 2705635.0 ], [ 785909.311741953948513, 2705535.0 ], [ 785879.424863708438352, 2705435.0 ], [ 785849.368285564472899, 2705335.0 ], [ 785819.070158867747523, 2705235.0 ], [ 785788.458070749416947, 2705135.0 ], [ 785757.460372770903632, 2705035.0 ], [ 785726.006881878711283, 2704935.0 ], [ 785694.031703834421933, 2704835.0 ], [ 785661.473471843055449, 2704735.0 ], [ 785628.27813284646254, 2704635.0 ], [ 785594.400009170407429, 2704535.0 ], [ 785559.803309370181523, 2704435.0 ], [ 785524.463484585285187, 2704335.0 ], [ 785488.367701886338182, 2704235.0 ], [ 785451.517032167059369, 2704135.0 ], [ 785413.927511186688207, 2704035.0 ], [ 785375.629957381868735, 2703935.0 ], [ 785336.671761100064032, 2703835.0 ], [ 785297.115974974352866, 2703735.0 ], [ 785257.043007226660848, 2703635.0 ], [ 785216.548923328053206, 2703535.0 ], [ 785175.747611060971394, 2703435.0 ], [ 785134.768628733581863, 2703335.0 ], [ 785093.754916727542877, 2703235.0 ], [ 785052.863424832350574, 2703135.0 ], [ 785012.262609766679816, 2703035.0 ], [ 784972.13136676303111, 2702935.0 ], [ 784932.65678134909831, 2702835.0 ], [ 784894.031362710753456, 2702735.0 ], [ 784856.450971808633767, 2702635.0 ], [ 784820.111523926607333, 2702535.0 ], [ 784785.20702245447319, 2702435.0 ], [ 784751.926414414425381, 2702335.0 ], [ 784720.450675659463741, 2702235.0 ], [ 784690.950113150523975, 2702135.0 ], [ 784663.581289964495227, 2702035.0 ], [ 784638.484604908851907, 2701935.0 ], [ 784615.78199575887993, 2701835.0 ], [ 784595.575618968927301, 2701735.0 ], [ 784577.945364845450968, 2701635.0 ], [ 784562.947714350535534, 2701535.0 ], [ 784550.615456760046072, 2701435.0 ], [ 784540.955847812118009, 2701335.0 ], [ 784533.95143429026939, 2701235.0 ], [ 784529.560067006736062, 2701135.0 ], [ 784527.715433576726355, 2701035.0 ], [ 784528.328085968387313, 2700935.0 ], [ 784531.288275437545963, 2700835.0 ], [ 784536.466391225229017, 2700735.0 ], [ 784543.71556338807568, 2700635.0 ], [ 784552.874394028447568, 2700535.0 ], [ 784563.769206008408219, 2700435.0 ], [ 784576.217306965147145, 2700335.0 ], [ 784590.029766274383292, 2700235.0 ], [ 784605.01377748278901, 2700135.0 ], [ 784620.976388623006642, 2700035.0 ], [ 784637.727108160033822, 2699935.0 ], [ 784655.079938132548705, 2699835.0 ], [ 784672.856129540130496, 2699735.0 ], [ 784690.885954060358927, 2699635.0 ], [ 784709.010611808393151, 2699535.0 ], [ 784727.084748497465625, 2699435.0 ], [ 784744.976967599242926, 2699335.0 ], [ 784762.56979268102441, 2699235.0 ], [ 784779.761344957398251, 2699135.0 ], [ 784796.465414177044295, 2699035.0 ], [ 784812.611904574674554, 2698935.0 ], [ 784828.144861950073391, 2698835.0 ], [ 784843.022871295688674, 2698735.0 ], [ 784857.21836341812741, 2698635.0 ], [ 784870.71644194656983, 2698535.0 ], [ 784883.513901768135838, 2698435.0 ], [ 784895.617652186308987, 2698335.0 ], [ 784907.043989536818117, 2698235.0 ], [ 784917.817195587442257, 2698135.0 ], [ 784927.968168566701934, 2698035.0 ], [ 784937.533242940437049, 2697935.0 ], [ 784946.553563834051602, 2697835.0 ], [ 784955.073562782607041, 2697735.0 ], [ 784963.139260151074268, 2697635.0 ], [ 784970.800459764082916, 2697535.0 ], [ 784978.107149195158854, 2697435.0 ], [ 784985.110325019108132, 2697335.0 ], [ 784991.861849670531228, 2697235.0 ], [ 784998.413218939793296, 2697135.0 ], [ 785004.814411870203912, 2697035.0 ], [ 785011.117335730348714, 2696935.0 ], [ 785017.372237539850175, 2696835.0 ], [ 785023.629028213326819, 2696735.0 ], [ 785029.937889204244129, 2696635.0 ], [ 785036.346111960359849, 2696535.0 ], [ 785042.901483715861104, 2696435.0 ], [ 785049.64759618032258, 2696335.0 ], [ 785056.633819059235975, 2696235.0 ], [ 785063.898472063592635, 2696135.0 ], [ 785071.481407593935728, 2696035.0 ], [ 785079.420629627886228, 2695935.0 ], [ 785087.750463562668301, 2695835.0 ], [ 785096.502416108152829, 2695735.0 ], [ 785105.704163369140588, 2695635.0 ], [ 785115.377094856579788, 2695535.0 ], [ 785125.5397079216782, 2695435.0 ], [ 785136.203854656778276, 2695335.0 ], [ 785147.37501424155198, 2695235.0 ], [ 785159.052221419522539, 2695135.0 ], [ 785171.228698803577572, 2695035.0 ], [ 785183.887028069468215, 2694935.0 ], [ 785197.006155289011076, 2694835.0 ], [ 785210.555926004075445, 2694735.0 ], [ 785224.499290089239366, 2694635.0 ], [ 785238.792137425974943, 2694535.0 ], [ 785253.382272783084773, 2694435.0 ], [ 785268.211681930348277, 2694335.0 ], [ 785283.215350466547534, 2694235.0 ], [ 785298.3195712066954, 2694135.0 ], [ 785313.451637579826638, 2694035.0 ], [ 785328.531596405664459, 2693935.0 ], [ 785343.471800989704207, 2693835.0 ], [ 785358.189260512823239, 2693735.0 ], [ 785372.594220340135507, 2693635.0 ], [ 785386.593873542966321, 2693535.0 ], [ 785400.095435049152002, 2693435.0 ], [ 785413.007172781624831, 2693335.0 ], [ 785425.237677449011244, 2693235.0 ], [ 785436.697103722020984, 2693135.0 ], [ 785447.297510620090179, 2693035.0 ], [ 785456.954591993708163, 2692935.0 ], [ 785465.587742634001188, 2692835.0 ], [ 785473.11874239880126, 2692735.0 ], [ 785479.473671324551105, 2692635.0 ], [ 785484.583592060720548, 2692535.0 ], [ 785488.384164371178485, 2692435.0 ], [ 785490.816103439312428, 2692335.0 ], [ 785491.826004270464182, 2692235.0 ], [ 785491.365737806539983, 2692135.0 ], [ 785489.392192450468428, 2692035.0 ], [ 785485.868532394291833, 2691935.0 ], [ 785480.762778118485585, 2691835.0 ], [ 785474.048656500410289, 2691735.0 ], [ 785465.705873208935373, 2691635.0 ], [ 785455.720114787342027, 2691535.0 ], [ 785444.081081477692351, 2691435.0 ], [ 785430.78438059007749, 2691335.0 ], [ 785415.832846474833786, 2691235.0 ], [ 785399.233864553971216, 2691135.0 ], [ 785381.001463922206312, 2691035.0 ], [ 785361.155299414647743, 2690935.0 ], [ 785339.721824954380281, 2690835.0 ], [ 785316.734102990827523, 2690735.0 ], [ 785292.232397339073941, 2690635.0 ], [ 785266.264604131458327, 2690535.0 ], [ 785238.886552492855117, 2690435.0 ], [ 785210.1623076061951, 2690335.0 ], [ 785180.164469054201618, 2690235.0 ], [ 785148.974968189257197, 2690135.0 ], [ 785116.685202043154277, 2690035.0 ], [ 785083.395980862085707, 2689935.0 ], [ 785049.217645599856041, 2689835.0 ], [ 785014.271674900781363, 2689735.0 ], [ 784978.689188751275651, 2689635.0 ], [ 784942.611136121908203, 2689535.0 ], [ 784906.187598460353911, 2689435.0 ], [ 784869.577700275462121, 2689335.0 ], [ 784832.94834913208615, 2689235.0 ], [ 784796.473789867013693, 2689135.0 ], [ 784760.33406340831425, 2689035.0 ], [ 784724.713603258482181, 2688935.0 ], [ 784689.799973719753325, 2688835.0 ], [ 784655.781795301707461, 2688735.0 ], [ 784622.84584622643888, 2688635.0 ], [ 784591.176542168250307, 2688535.0 ], [ 784560.952699246350676, 2688435.0 ], [ 784532.344987922580913, 2688335.0 ], [ 784505.514129141694866, 2688235.0 ], [ 784480.608330966555513, 2688135.0 ], [ 784457.76152228936553, 2688035.0 ], [ 784437.089638345874846, 2687935.0 ], [ 784418.690841887379065, 2687835.0 ], [ 784402.641774090472609, 2687735.0 ], [ 784388.999317835550755, 2687635.0 ], [ 784377.794034899794497, 2687535.0 ], [ 784369.033041616901755, 2687435.0 ], [ 784362.698155483580194, 2687335.0 ], [ 784358.747150366310962, 2687235.0 ], [ 784357.112588755204342, 2687135.0 ], [ 784357.703188430168666, 2687035.0 ], [ 784360.404785618768074, 2686935.0 ], [ 784365.082421168568544, 2686835.0 ], [ 784371.581276671378873, 2686735.0 ], [ 784379.729711250751279, 2686635.0 ], [ 784389.341411968343891, 2686535.0 ], [ 784400.217661143746227, 2686435.0 ], [ 784412.151306548737921, 2686335.0 ], [ 784424.928784230491146, 2686235.0 ], [ 784438.333162293536589, 2686135.0 ], [ 784452.150999758276157, 2686035.0 ], [ 784466.168947412050329, 2685935.0 ], [ 784480.177720680483617, 2685835.0 ], [ 784493.978962547960691, 2685735.0 ], [ 784507.386290807044134, 2685635.0 ], [ 784520.225792317884043, 2685535.0 ], [ 784532.340675512794405, 2685435.0 ], [ 784543.591336100827903, 2685335.0 ], [ 784553.857514843926765, 2685235.0 ], [ 784563.041264612227678, 2685135.0 ], [ 784571.06552526645828, 2685035.0 ], [ 784577.874316885601729, 2684935.0 ], [ 784583.435111082741059, 2684835.0 ], [ 784587.738454956095666, 2684735.0 ], [ 784590.796707019209862, 2684635.0 ], [ 784592.64507678640075, 2684535.0 ], [ 784593.338800350320525, 2684435.0 ], [ 784592.954755147336982, 2684335.0 ], [ 784591.586992008844391, 2684235.0 ], [ 784589.347683270112611, 2684135.0 ], [ 784586.36529580457136, 2684035.0 ], [ 784582.784681068500504, 2683935.0 ], [ 784578.763979230774567, 2683835.0 ], [ 784574.471772695309483, 2683735.0 ], [ 784570.086073703947477, 2683635.0 ], [ 784565.793705439427868, 2683535.0 ], [ 784561.787042135372758, 2683435.0 ], [ 784558.262415761128068, 2683335.0 ], [ 784555.418134217499755, 2683235.0 ], [ 784553.452580714016221, 2683135.0 ], [ 784552.562166046118364, 2683035.0 ], [ 784552.939561899984255, 2682935.0 ], [ 784554.771602772409096, 2682835.0 ], [ 784558.238218874204904, 2682735.0 ], [ 784563.509628811851144, 2682635.0 ], [ 784570.744862233987078, 2682535.0 ], [ 784580.090666646952741, 2682435.0 ], [ 784591.679829746135511, 2682335.0 ], [ 784605.628623038996011, 2682235.0 ], [ 784622.037002376746386, 2682135.0 ], [ 784640.986484644701704, 2682035.0 ], [ 784662.546166510554031, 2681935.0 ], [ 784686.758723435341381, 2681835.0 ], [ 784713.645068278419785, 2681735.0 ], [ 784743.209199904464185, 2681635.0 ], [ 784775.435341061092913, 2681535.0 ], [ 784810.287213624455035, 2681435.0 ], [ 784847.709775203140453, 2681335.0 ], [ 784887.630174623336643, 2681235.0 ], [ 784929.95889636175707, 2681135.0 ], [ 784974.588868562830612, 2681035.0 ], [ 785021.399514999124222, 2680935.0 ], [ 785070.257360596908256, 2680835.0 ], [ 785121.018911331892014, 2680735.0 ], [ 785173.532289727008902, 2680635.0 ], [ 785227.638202413450927, 2680535.0 ], [ 785283.173747649416327, 2680435.0 ], [ 785339.974774012342095, 2680335.0 ], [ 785397.878309961757623, 2680235.0 ], [ 785456.724559096386656, 2680135.0 ], [ 785516.360303274588659, 2680035.0 ], [ 785576.64046993420925, 2679935.0 ], [ 785637.43086071673315, 2679835.0 ], [ 785698.610421024262905, 2679735.0 ], [ 785760.071551222354174, 2679635.0 ], [ 785821.723671804182231, 2679535.0 ], [ 785883.501535479328595, 2679435.0 ], [ 785945.350601576152258, 2679335.0 ], [ 786007.233415579772554, 2679235.0 ], [ 786069.136456216219813, 2679135.0 ], [ 786131.066376519855112, 2679035.0 ], [ 786193.050334439612925, 2678935.0 ], [ 786255.13465585175436, 2678835.0 ], [ 786317.384123233379796, 2678735.0 ], [ 786379.880868421285413, 2678635.0 ], [ 786442.723128515528515, 2678535.0 ], [ 786506.023090666625649, 2678435.0 ], [ 786569.90465403732378, 2678335.0 ], [ 786634.501564086065628, 2678235.0 ], [ 786699.954505808884278, 2678135.0 ], [ 786766.408534447895363, 2678035.0 ], [ 786834.010460601653904, 2677935.0 ], [ 786902.906573505257256, 2677835.0 ], [ 786973.238113553263247, 2677735.0 ], [ 787045.140689557185397, 2677635.0 ], [ 787118.740780413034372, 2677535.0 ], [ 787194.153764067101292, 2677435.0 ], [ 787271.481211006292142, 2677335.0 ], [ 787350.809616399463266, 2677235.0 ], [ 787432.208167536882684, 2677135.0 ], [ 787515.727210293989629, 2677035.0 ], [ 787601.398147776024416, 2676935.0 ], [ 787689.231829873053357, 2676835.0 ], [ 787779.219113365048543, 2676735.0 ], [ 787871.331244575441815, 2676635.0 ], [ 787965.51883377332706, 2676535.0 ], [ 788061.714001237414777, 2676435.0 ], [ 788159.831998993176967, 2676335.0 ], [ 788259.771515599568374, 2676235.0 ], [ 788361.420818120939657, 2676135.0 ], [ 788464.646077212062664, 2676035.0 ], [ 788569.304748652968556, 2675935.0 ], [ 788675.245126448920928, 2675835.0 ], [ 788782.309478609473445, 2675735.0 ], [ 788890.33328608807642, 2675635.0 ], [ 788999.151720550027676, 2675535.0 ], [ 789108.597096176119521, 2675435.0 ], [ 789218.50326786050573, 2675335.0 ], [ 789328.70617815759033, 2675235.0 ], [ 789439.045809858827852, 2675135.0 ], [ 789549.366734224953689, 2675035.0 ], [ 789659.520983364665881, 2674935.0 ], [ 789769.368001627852209, 2674835.0 ], [ 789878.776557661010884, 2674735.0 ], [ 789987.624366852804087, 2674635.0 ], [ 790095.79934235336259, 2674535.0 ], [ 790203.200210318784229, 2674435.0 ], [ 790309.736385426018387, 2674335.0 ], [ 790415.329210081836209, 2674235.0 ], [ 790519.912611730047502, 2674135.0 ], [ 790623.430419879849069, 2674035.0 ], [ 790725.841858020983636, 2673935.0 ], [ 790827.121396638569422, 2673835.0 ], [ 790927.253347742371261, 2673735.0 ], [ 791026.236343751777895, 2673635.0 ], [ 791124.082844105665572, 2673535.0 ], [ 791220.81815909256693, 2673435.0 ], [ 791316.480863820179366, 2673335.0 ], [ 791411.122442652471364, 2673235.0 ], [ 791504.806461704079993, 2673135.0 ], [ 791597.609113774029538, 2673035.0 ], [ 791689.617058449774049, 2672935.0 ], [ 791780.926214794395491, 2672835.0 ], [ 791871.640557908336632, 2672735.0 ], [ 791961.870121864019893, 2672635.0 ], [ 792051.729170420090668, 2672535.0 ], [ 792141.334142720559612, 2672435.0 ], [ 792230.800157020334154, 2672335.0 ], [ 792320.237711075693369, 2672235.0 ], [ 792409.750751420971937, 2672135.0 ], [ 792499.433217554586008, 2672035.0 ], [ 792589.365333516267128, 2671935.0 ], [ 792679.611044265329838, 2671835.0 ], [ 792770.215175341698341, 2671735.0 ], [ 792861.200133904232644, 2671635.0 ], [ 792952.563672950607724, 2671535.0 ], [ 793044.276750020100735, 2671435.0 ], [ 793136.281930300639942, 2671335.0 ], [ 793228.492448708973825, 2671235.0 ], [ 793320.791683510644361, 2671135.0 ], [ 793413.033292185631581, 2671035.0 ], [ 793505.042049603187479, 2670935.0 ], [ 793596.615417998516932, 2670835.0 ], [ 793687.525635356083512, 2670735.0 ], [ 793777.522675255080685, 2670635.0 ], [ 793866.337801753776148, 2670535.0 ], [ 793953.687296248739585, 2670435.0 ], [ 794039.276414260268211, 2670335.0 ], [ 794122.805853589437902, 2670235.0 ], [ 794203.974681525141932, 2670135.0 ], [ 794282.486998888547532, 2670035.0 ], [ 794358.051339793135412, 2669935.0 ], [ 794430.397709987941198, 2669835.0 ], [ 794499.276649447274394, 2669735.0 ], [ 794564.458347133826464, 2669635.0 ], [ 794625.739989444613457, 2669535.0 ], [ 794682.95066157495603, 2669435.0 ], [ 794735.952964819269255, 2669335.0 ], [ 794784.645410096039996, 2669235.0 ], [ 794828.964019904728048, 2669135.0 ], [ 794868.884669553022832, 2669035.0 ], [ 794904.420349242514931, 2668935.0 ], [ 794935.621841097599827, 2668835.0 ], [ 794962.576802151277661, 2668735.0 ] ] } }
]
}
